PROBA-1                 
1 26958U 01049B   26196.01366484  .00001220  00000+0  81979-4 0  9992
2 26958  97.9600 205.5192 0055779  30.4221 330.0222 15.07615641347813
CUTE-1 (CO-55)          
1 27844U 03031E   26195.92547578  .00000138  00000+0  78446-4 0  9996
2 27844  98.6742 204.1360 0010830 103.4126 256.8261 14.24351439195627
CUBESAT XI-IV (CO-57)   
1 27848U 03031J   26195.92787535  .00000113  00000+0  68510-4 0  9993
2 27848  98.6775 203.8287 0010552 120.2508 239.9717 14.23634433195325
APRIZESAT 4             
1 35684U 09041D   26195.76890348  .00000319  00000+0  44861-4 0  9997
2 35684  98.1404 271.6382 0042209 230.9211 128.8245 14.83913443915452
APRIZESAT 3             
1 35686U 09041F   26195.91816132  .00000913  00000+0  83801-4 0  9992
2 35686  98.2099 350.4767 0060833 336.8509  22.9972 14.96310537920521
PROBA-2                 
1 36037U 09059B   26195.47551579  .00000076  00000+0  28226-4 0  9994
2 36037  98.2458  18.4511 0012984 190.9949 169.0966 14.54873530885493
APRIZESAT 5             
1 37792U 11044E   26195.77346726  .00000392  00000+0  56922-4 0  9994
2 37792  98.2449 129.5970 0050699 274.1000  85.4418 14.81127189802879
APRIZESAT 6             
1 37793U 11044F   26195.72035223  .00000369  00000+0  59580-4 0  9994
2 37793  98.2339 106.7799 0043103 359.7738  61.0492 14.76956350801217
PROBA-V                 
1 39159U 13021A   26195.88156176  .00000016  00000+0  25162-4 0  9995
2 39159  98.3606 173.1237 0005263  60.7221 299.4484 14.23603367685058
APRIZESAT 7             
1 39416U 13066A   26195.85969956  .00000450  00000+0  49891-4 0  9992
2 39416  97.7722 148.6847 0037202 118.3821 242.1157 14.91618710685352
APRIZESAT 8             
1 39425U 13066K   26195.85274641  .00000368  00000+0  45858-4 0  9999
2 39425  97.8230 142.9372 0045459 193.0108 166.9939 14.87696214683784
BUGSAT-1 (TITA)         
1 40014U 14033E   26195.96095176  .00001334  00000+0  72974-4 0  9999
2 40014  98.0437 290.1397 0029119  86.5992 273.8569 15.15875780660047
SAUDISAT 4              
1 40016U 14033G   26195.91422253  .00000226  00000+0  36661-4 0  9998
2 40016  97.7617 341.0956 0044281 344.9930  14.9965 14.79575454650173
APRIZESAT 9             
1 40018U 14033J   26195.89994052  .00000321  00000+0  54518-4 0  9995
2 40018  97.9094 328.4262 0067435 110.8637 249.9809 14.74252449647641
APRIZESAT 10            
1 40019U 14033K   26195.88172667  .00000293  00000+0  53941-4 0  9992
2 40019  97.9681 322.2283 0078711 184.3486 175.7046 14.70910693646327
TECHDEMOSAT-1 (TDS-1)   
1 40076U 14037H   26195.92605687  .00004430  00000+0  25050-3 0  9993
2 40076  98.3824 190.8983 0006879 159.5961 200.5544 15.13677222652422
TECHNOSAT               
1 42829U 17042E   26195.90714056  .00001771  00000+0  12825-3 0  9990
2 42829  97.4316 352.5168 0017459   4.4535 355.6844 15.05110224490878
FLYING LAPTOP           
1 42831U 17042G   26195.98011823  .00002067  00000+0  16449-3 0  9998
2 42831  97.4798 350.4668 0019720  33.1862 327.0595 15.01312390490625
HAWK-A                  
1 43765U 18099H   26195.71348040  .00003863  00000+0  15537-3 0  9995
2 43765  97.3898 247.5936 0034668 185.6155 174.4699 15.24960794417295
HAWK-B                  
1 43794U 18099AN  26195.70236875  .00003433  00000+0  14663-3 0  9990
2 43794  97.3949 246.9395 0031313 203.8074 156.1716 15.23111515417221
HAWK-C                  
1 43799U 18099AT  26195.95453501  .00004927  00000+0  17628-3 0  9992
2 43799  97.3875 248.8817 0040252 184.6529 175.4343 15.28488203418156
SALSAT                  
1 46495U 20068K   26195.54877328  .00004163  00000+0  14541-3 0  9992
2 46495  97.8856 200.2874 0009148 195.2534 164.8431 15.30166467319545
HAWK-2C                 
1 47502U 21006CT  26195.66509266  .00003786  00000+0  11375-3 0  9993
2 47502  97.2266 239.4301 0008654 102.3120 257.9093 15.34984988303714
HAWK-2A                 
1 47505U 21006CW  26195.66732211  .00003865  00000+0  11606-3 0  9999
2 47505  97.2307 240.1261 0008194 105.6995 254.5153 15.35000088303713
HAWK-2B                 
1 47508U 21006CZ  26195.66088927  .00004408  00000+0  13145-3 0  9994
2 47508  97.2177 238.4084 0008730 104.0713 256.1502 15.35131464303710
HAWK-3B                 
1 48931U 21059BE  26195.84557896  .00032217  00000+0  24905-3 0  9994
2 48931  97.6629  35.2168 0004409 199.2120 160.8977 15.71842993282191
HAWK-3C                 
1 48948U 21059BX  26195.52695099  .00028898  00000+0  22376-3 0  9995
2 48948  97.6746  40.5999 0004601 201.7329 158.3739 15.71823650282146
HAWK-3A                 
1 48957U 21059CG  26195.52683910  .00029930  00000+0  23169-3 0  9993
2 48957  97.6690  37.7828 0004534 203.2182 156.8876 15.71823724282149
HAWK-5C                 
1 52754U 22057Y   26195.89964248  .00010555  00000+0  17517-3 0  9991
2 52754  97.6611 357.3775 0002821 347.7825  12.3358 15.52318324230642
HAWK-5B                 
1 52756U 22057AA  26195.89945790  .00010614  00000+0  17614-3 0  9998
2 52756  97.6626 355.7308 0003510 333.2559  26.8511 15.52315637230649
